FENGYUN 1C DEB          
1 29841U 99025EK  17345.96058137  .00000148  00000-0  49885-4 0  9999
2 29841  98.9113 145.8535 0220312  20.8879  98.9795 14.39488311572263
